STARLINK-1506           
1 45747U 20038T   26068.66028804  .00025380  00000+0  97997-3 0  9997
2 45747  53.0733 202.5028 0002514 227.7836 132.2949 15.26134655316688
STARLINK-34038          
1 63911U 25095X   26068.33763224  .00022448  00000+0  82242-3 0  9993
2 63911  42.9999 178.2312 0000730 258.9451 101.1318 15.27594626 47724
